[{"OBJECT_NAME":"KUIPER-00167","OBJECT_ID":"2025-217U","EPOCH":"2026-03-09T07:25:05.974752","MEAN_MOTION":14.79947692,"ECCENTRICITY":8.121e-5,"INCLINATION":51.8966,"RA_OF_ASC_NODE":47.2417,"ARG_OF_PERICENTER":75.791,"MEAN_ANOMALY":284.3142,"EPHEMERIS_TYPE":0,"CLASSIFICATION_TYPE":"U","NORAD_CAT_ID":65780,"ELEMENT_SET_NO":999,"REV_AT_EPOCH":2478,"BSTAR":-2.5142666e-5,"MEAN_MOTION_DOT":-4.13e-6,"MEAN_MOTION_DDOT":0},{"OBJECT_NAME":"FENGYUN 1C DEB","OBJECT_ID":"1999-025AJM","EPOCH":"2026-03-09T10:00:54.575712","MEAN_MOTION":14.2813532,"ECCENTRICITY":0.024176,"INCLINATION":98.4783,"RA_OF_ASC_NODE":49.2581,"ARG_OF_PERICENTER":213.3538,"MEAN_ANOMALY":302.0896,"EPHEMERIS_TYPE":0,"CLASSIFICATION_TYPE":"U","NORAD_CAT_ID":30523,"ELEMENT_SET_NO":999,"REV_AT_EPOCH":99337,"BSTAR":0.00018156276,"MEAN_MOTION_DOT":5.67e-6,"MEAN_MOTION_DDOT":0}]
